STARLINK-35312          
1 65866U 25223N   25302.92004753  .00054824  00000+0  98659-3 0  9999
2 65866  53.1598 183.7511 0001607 114.8538 245.2638 15.49317219  4156
STARLINK-35456          
1 65867U 25223P   25302.91970453  .00095471  00000+0  17028-2 0  9991
2 65867  53.1599 183.7480 0001033  90.6031 269.5096 15.49324607  4151
STARLINK-35450          
1 65868U 25223Q   25302.91668981  .00034258  00000+0  86339-3 0  9990
2 65868  53.1601 184.0205 0001155  89.3451 124.2434 15.39591413  5447
STARLINK-35441          
1 65869U 25223R   25302.91668981  .00022835  00000+0  57918-3 0  9990
2 65869  53.1600 184.0706 0001097  91.1646  96.6819 15.39617634  5448
STARLINK-35433          
1 65870U 25223S   25302.91668981  .00028112  00000+0  71089-3 0  9991
2 65870  53.1603 183.9170 0001190  95.2107 169.8764 15.39589588  5445
STARLINK-35465          
1 65871U 25223T   25302.91668981  .00021408  00000+0  54420-3 0  9993
2 65871  53.1606 183.9682 0001108  96.5128 142.8536 15.39591268  5449
STARLINK-34108          
1 65872U 25223U   25302.91668981  .00036696  00000+0  92440-3 0  9993
2 65872  53.1598 183.8145 0000904  83.2448 233.3969 15.39572880  5348
STARLINK-35423          
1 65873U 25223V   25302.91668981 -.01687782  00000+0 -42991-1 0  9999
2 65873  53.1598 183.7696 0001583 102.4421 236.3872 15.42490500  5447
STARLINK-35425          
1 65874U 25223W   25302.91668981  .00033225  00000+0  83781-3 0  9998
2 65874  53.1602 183.8653 0001624  77.9269 212.9225 15.39589530  5440
STARLINK-34688          
1 65875U 25223X   25302.91668981 -.02139124  00000+0 -49207-1 0  9991
2 65875  53.1596 183.7402 0001086 121.3013 232.1174 15.45744772  5442
STARLINK-34438          
1 65876U 25223Y   25302.85210435  .00094897  00000+0  16926-2 0  9998
2 65876  53.1593 184.0357 0001170  85.3027 274.8116 15.49326071  4148
STARLINK-35462          
1 65877U 25223Z   25302.91559100 -.00007150  00000+0 -12092-3 0  9990
2 65877  53.1598 183.7197 0000943 150.8883 209.2179 15.49237939  4153
