CCSDS_OMM_VERS = 2.0
CREATION_DATE  = 
ORIGINATOR     = 

OBJECT_NAME    = STARLINK-35312
OBJECT_ID      = 2025-223N
CENTER_NAME    = EARTH
REF_FRAME      = TEME
TIME_SYSTEM    = UTC
MEAN_ELEMENT_THEORY = SGP/SGP4

EPOCH          = 2025-10-29T22:04:52.106592
MEAN_MOTION    = 15.49317219
ECCENTRICITY   = .00016074
INCLINATION    = 53.1598
RA_OF_ASC_NODE = 183.7511
ARG_OF_PERICENTER = 114.8538
MEAN_ANOMALY   = 245.2638

EPHEMERIS_TYPE = 0
CLASSIFICATION_TYPE = U
NORAD_CAT_ID   = 65866
ELEMENT_SET_NO = 999
REV_AT_EPOCH   = 415
BSTAR          = .98658948E-3
MEAN_MOTION_DOT = .54824E-3
MEAN_MOTION_DDOT = 0

CCSDS_OMM_VERS = 2.0
CREATION_DATE  = 
ORIGINATOR     = 

OBJECT_NAME    = STARLINK-35456
OBJECT_ID      = 2025-223P
CENTER_NAME    = EARTH
REF_FRAME      = TEME
TIME_SYSTEM    = UTC
MEAN_ELEMENT_THEORY = SGP/SGP4

EPOCH          = 2025-10-29T22:04:22.471392
MEAN_MOTION    = 15.49324607
ECCENTRICITY   = .00010331
INCLINATION    = 53.1599
RA_OF_ASC_NODE = 183.7480
ARG_OF_PERICENTER = 90.6031
MEAN_ANOMALY   = 269.5096

EPHEMERIS_TYPE = 0
CLASSIFICATION_TYPE = U
NORAD_CAT_ID   = 65867
ELEMENT_SET_NO = 999
REV_AT_EPOCH   = 415
BSTAR          = .17027859E-2
MEAN_MOTION_DOT = .95471E-3
MEAN_MOTION_DDOT = 0

CCSDS_OMM_VERS = 2.0
CREATION_DATE  = 
ORIGINATOR     = 

OBJECT_NAME    = STARLINK-35450
OBJECT_ID      = 2025-223Q
CENTER_NAME    = EARTH
REF_FRAME      = TEME
TIME_SYSTEM    = UTC
MEAN_ELEMENT_THEORY = SGP/SGP4

EPOCH          = 2025-10-29T22:00:01.999584
MEAN_MOTION    = 15.39591413
ECCENTRICITY   = .00011551
INCLINATION    = 53.1601
RA_OF_ASC_NODE = 184.0205
ARG_OF_PERICENTER = 89.3451
MEAN_ANOMALY   = 124.2434

EPHEMERIS_TYPE = 0
CLASSIFICATION_TYPE = U
NORAD_CAT_ID   = 65868
ELEMENT_SET_NO = 999
REV_AT_EPOCH   = 544
BSTAR          = .86339069E-3
MEAN_MOTION_DOT = .34258E-3
MEAN_MOTION_DDOT = 0

CCSDS_OMM_VERS = 2.0
CREATION_DATE  = 
ORIGINATOR     = 

OBJECT_NAME    = STARLINK-35441
OBJECT_ID      = 2025-223R
CENTER_NAME    = EARTH
REF_FRAME      = TEME
TIME_SYSTEM    = UTC
MEAN_ELEMENT_THEORY = SGP/SGP4

EPOCH          = 2025-10-29T22:00:01.999584
MEAN_MOTION    = 15.39617634
ECCENTRICITY   = .00010979
INCLINATION    = 53.1600
RA_OF_ASC_NODE = 184.0706
ARG_OF_PERICENTER = 91.1646
MEAN_ANOMALY   = 96.6819

EPHEMERIS_TYPE = 0
CLASSIFICATION_TYPE = U
NORAD_CAT_ID   = 65869
ELEMENT_SET_NO = 999
REV_AT_EPOCH   = 544
BSTAR          = .57917954E-3
MEAN_MOTION_DOT = .22835E-3
MEAN_MOTION_DDOT = 0

CCSDS_OMM_VERS = 2.0
CREATION_DATE  = 
ORIGINATOR     = 

OBJECT_NAME    = STARLINK-35433
OBJECT_ID      = 2025-223S
CENTER_NAME    = EARTH
REF_FRAME      = TEME
TIME_SYSTEM    = UTC
MEAN_ELEMENT_THEORY = SGP/SGP4

EPOCH          = 2025-10-29T22:00:01.999584
MEAN_MOTION    = 15.39589588
ECCENTRICITY   = .00011905
INCLINATION    = 53.1603
RA_OF_ASC_NODE = 183.9170
ARG_OF_PERICENTER = 95.2107
MEAN_ANOMALY   = 169.8764

EPHEMERIS_TYPE = 0
CLASSIFICATION_TYPE = U
NORAD_CAT_ID   = 65870
ELEMENT_SET_NO = 999
REV_AT_EPOCH   = 544
BSTAR          = .71089107E-3
MEAN_MOTION_DOT = .28112E-3
MEAN_MOTION_DDOT = 0

CCSDS_OMM_VERS = 2.0
CREATION_DATE  = 
ORIGINATOR     = 

OBJECT_NAME    = STARLINK-35465
OBJECT_ID      = 2025-223T
CENTER_NAME    = EARTH
REF_FRAME      = TEME
TIME_SYSTEM    = UTC
MEAN_ELEMENT_THEORY = SGP/SGP4

EPOCH          = 2025-10-29T22:00:01.999584
MEAN_MOTION    = 15.39591268
ECCENTRICITY   = .00011081
INCLINATION    = 53.1606
RA_OF_ASC_NODE = 183.9682
ARG_OF_PERICENTER = 96.5128
MEAN_ANOMALY   = 142.8536

EPHEMERIS_TYPE = 0
CLASSIFICATION_TYPE = U
NORAD_CAT_ID   = 65871
ELEMENT_SET_NO = 999
REV_AT_EPOCH   = 544
BSTAR          = .54419574E-3
MEAN_MOTION_DOT = .21408E-3
MEAN_MOTION_DDOT = 0

CCSDS_OMM_VERS = 2.0
CREATION_DATE  = 
ORIGINATOR     = 

OBJECT_NAME    = STARLINK-34108
OBJECT_ID      = 2025-223U
CENTER_NAME    = EARTH
REF_FRAME      = TEME
TIME_SYSTEM    = UTC
MEAN_ELEMENT_THEORY = SGP/SGP4

EPOCH          = 2025-10-29T22:00:01.999584
MEAN_MOTION    = 15.39572880
ECCENTRICITY   = .00009041
INCLINATION    = 53.1598
RA_OF_ASC_NODE = 183.8145
ARG_OF_PERICENTER = 83.2448
MEAN_ANOMALY   = 233.3969

EPHEMERIS_TYPE = 0
CLASSIFICATION_TYPE = U
NORAD_CAT_ID   = 65872
ELEMENT_SET_NO = 999
REV_AT_EPOCH   = 534
BSTAR          = .92439661E-3
MEAN_MOTION_DOT = .36696E-3
MEAN_MOTION_DDOT = 0

CCSDS_OMM_VERS = 2.0
CREATION_DATE  = 
ORIGINATOR     = 

OBJECT_NAME    = STARLINK-35423
OBJECT_ID      = 2025-223V
CENTER_NAME    = EARTH
REF_FRAME      = TEME
TIME_SYSTEM    = UTC
MEAN_ELEMENT_THEORY = SGP/SGP4

EPOCH          = 2025-10-29T22:00:01.999584
MEAN_MOTION    = 15.42490500
ECCENTRICITY   = .00015839
INCLINATION    = 53.1598
RA_OF_ASC_NODE = 183.7696
ARG_OF_PERICENTER = 102.4421
MEAN_ANOMALY   = 236.3872

EPHEMERIS_TYPE = 0
CLASSIFICATION_TYPE = U
NORAD_CAT_ID   = 65873
ELEMENT_SET_NO = 999
REV_AT_EPOCH   = 544
BSTAR          = -.42991338E-1
MEAN_MOTION_DOT = -.1687782E-1
MEAN_MOTION_DDOT = 0

CCSDS_OMM_VERS = 2.0
CREATION_DATE  = 
ORIGINATOR     = 

OBJECT_NAME    = STARLINK-35425
OBJECT_ID      = 2025-223W
CENTER_NAME    = EARTH
REF_FRAME      = TEME
TIME_SYSTEM    = UTC
MEAN_ELEMENT_THEORY = SGP/SGP4

EPOCH          = 2025-10-29T22:00:01.999584
MEAN_MOTION    = 15.39589530
ECCENTRICITY   = .00016241
INCLINATION    = 53.1602
RA_OF_ASC_NODE = 183.8653
ARG_OF_PERICENTER = 77.9269
MEAN_ANOMALY   = 212.9225

EPHEMERIS_TYPE = 0
CLASSIFICATION_TYPE = U
NORAD_CAT_ID   = 65874
ELEMENT_SET_NO = 999
REV_AT_EPOCH   = 544
BSTAR          = .83781454E-3
MEAN_MOTION_DOT = .33225E-3
MEAN_MOTION_DDOT = 0

CCSDS_OMM_VERS = 2.0
CREATION_DATE  = 
ORIGINATOR     = 

OBJECT_NAME    = STARLINK-34688
OBJECT_ID      = 2025-223X
CENTER_NAME    = EARTH
REF_FRAME      = TEME
TIME_SYSTEM    = UTC
MEAN_ELEMENT_THEORY = SGP/SGP4

EPOCH          = 2025-10-29T22:00:01.999584
MEAN_MOTION    = 15.45744772
ECCENTRICITY   = .00010863
INCLINATION    = 53.1596
RA_OF_ASC_NODE = 183.7402
ARG_OF_PERICENTER = 121.3013
MEAN_ANOMALY   = 232.1174

EPHEMERIS_TYPE = 0
CLASSIFICATION_TYPE = U
NORAD_CAT_ID   = 65875
ELEMENT_SET_NO = 999
REV_AT_EPOCH   = 544
BSTAR          = -.49206787E-1
MEAN_MOTION_DOT = -.2139124E-1
MEAN_MOTION_DDOT = 0

CCSDS_OMM_VERS = 2.0
CREATION_DATE  = 
ORIGINATOR     = 

OBJECT_NAME    = STARLINK-34438
OBJECT_ID      = 2025-223Y
CENTER_NAME    = EARTH
REF_FRAME      = TEME
TIME_SYSTEM    = UTC
MEAN_ELEMENT_THEORY = SGP/SGP4

EPOCH          = 2025-10-29T20:27:01.815840
MEAN_MOTION    = 15.49326071
ECCENTRICITY   = .00011703
INCLINATION    = 53.1593
RA_OF_ASC_NODE = 184.0357
ARG_OF_PERICENTER = 85.3027
MEAN_ANOMALY   = 274.8116

EPHEMERIS_TYPE = 0
CLASSIFICATION_TYPE = U
NORAD_CAT_ID   = 65876
ELEMENT_SET_NO = 999
REV_AT_EPOCH   = 414
BSTAR          = .16926306E-2
MEAN_MOTION_DOT = .94897E-3
MEAN_MOTION_DDOT = 0

CCSDS_OMM_VERS = 2.0
CREATION_DATE  = 
ORIGINATOR     = 

OBJECT_NAME    = STARLINK-35462
OBJECT_ID      = 2025-223Z
CENTER_NAME    = EARTH
REF_FRAME      = TEME
TIME_SYSTEM    = UTC
MEAN_ELEMENT_THEORY = SGP/SGP4

EPOCH          = 2025-10-29T21:58:27.062400
MEAN_MOTION    = 15.49237939
ECCENTRICITY   = .00009439
INCLINATION    = 53.1598
RA_OF_ASC_NODE = 183.7197
ARG_OF_PERICENTER = 150.8883
MEAN_ANOMALY   = 209.2179

EPHEMERIS_TYPE = 0
CLASSIFICATION_TYPE = U
NORAD_CAT_ID   = 65877
ELEMENT_SET_NO = 999
REV_AT_EPOCH   = 415
BSTAR          = -.12092352E-3
MEAN_MOTION_DOT = -.715E-4
MEAN_MOTION_DDOT = 0

